{
  "type": "FeatureCollection",
  "features": [
    {
      "type": "Feature",
      "properties": {
        "norad_id": 34389,
        "name": "COSMOS 2251 DEB",
        "group": "cosmos-2251-debris",
        "lat": 19.309557843217565,
        "lon": 69.83694470260608,
        "alt_km": 771.3031349857474,
        "timestamp": "2025-12-09T14:52:26.556644+00:00",
        "meta_object_name": "COSMOS 2251 DEB",
        "meta_object_id": "1993-036QE",
        "meta_epoch": "2025-12-09T04:40:56.277984",
        "meta_mean_motion": 14.41518195,
        "meta_eccentricity": 0.00287404,
        "meta_inclination": 74.0195,
        "meta_ra_of_asc_node": 256.3866,
        "meta_arg_of_pericenter": 9.087,
        "meta_mean_anomaly": 107.6825,
        "meta_ephemeris_type": 0,
        "meta_classification_type": "U",
        "meta_norad_cat_id": 34389,
        "meta_element_set_no": 999,
        "meta_rev_at_epoch": 87961,
        "meta_bstar": 0.00056729856,
        "meta_mean_motion_dot": 1.826e-05,
        "meta_mean_motion_ddot": 0,
        "tle_line1": "1 34389U 93036QE  25343.19509581  .00001826  00000+0  56730-3 0  9993",
        "tle_line2": "2 34389  74.0195 256.3866 0028740   9.0870 107.6825 14.41518195879615"
      },
      "geometry": {
        "type": "Point",
        "coordinates": [
          69.83694470260608,
          19.309557843217565
        ]
      }
    },
    {
      "type": "Feature",
      "properties": {
        "norad_id": 34396,
        "name": "COSMOS 2251 DEB",
        "group": "cosmos-2251-debris",
        "lat": 68.5129350627653,
        "lon": 176.80526919501668,
        "alt_km": 640.9525571330596,
        "timestamp": "2025-12-09T14:52:26.556655+00:00",
        "meta_object_name": "COSMOS 2251 DEB",
        "meta_object_id": "1993-036QM",
        "meta_epoch": "2025-12-08T21:10:40.072800",
        "meta_mean_motion": 14.74240949,
        "meta_eccentricity": 0.0006611,
        "meta_inclination": 74.0291,
        "meta_ra_of_asc_node": 131.5657,
        "meta_arg_of_pericenter": 173.1693,
        "meta_mean_anomaly": 310.6919,
        "meta_ephemeris_type": 0,
        "meta_classification_type": "U",
        "meta_norad_cat_id": 34396,
        "meta_element_set_no": 999,
        "meta_rev_at_epoch": 88289,
        "meta_bstar": 0.0027356,
        "meta_mean_motion_dot": 0.00018107,
        "meta_mean_motion_ddot": 0,
        "tle_line1": "1 34396U 93036QM  25342.88240825  .00018107  00000+0  27356-2 0  9990",
        "tle_line2": "2 34396  74.0291 131.5657 0006611 173.1693 310.6919 14.74240949882890"
      },
      "geometry": {
        "type": "Point",
        "coordinates": [
          176.80526919501668,
          68.5129350627653
        ]
      }
    },
    {
      "type": "Feature",
      "properties": {
        "norad_id": 34400,
        "name": "COSMOS 2251 DEB",
        "group": "cosmos-2251-debris",
        "lat": -72.17677649318813,
        "lon": -86.29575207576504,
        "alt_km": 414.90596537911915,
        "timestamp": "2025-12-09T14:52:26.556665+00:00",
        "meta_object_name": "COSMOS 2251 DEB",
        "meta_object_id": "1993-036QR",
        "meta_epoch": "2025-12-09T04:27:42.750144",
        "meta_mean_motion": 15.51379974,
        "meta_eccentricity": 0.000606,
        "meta_inclination": 73.9664,
        "meta_ra_of_asc_node": 31.22,
        "meta_arg_of_pericenter": 268.9717,
        "meta_mean_anomaly": 91.0802,
        "meta_ephemeris_type": 0,
        "meta_classification_type": "U",
        "meta_norad_cat_id": 34400,
        "meta_element_set_no": 999,
        "meta_rev_at_epoch": 89919,
        "meta_bstar": 0.0040328151,
        "meta_mean_motion_dot": 0.00245126,
        "meta_mean_motion_ddot": 0,
        "tle_line1": "1 34400U 93036QR  25343.18591146  .00245126  00000+0  40328-2 0  9992",
        "tle_line2": "2 34400  73.9664  31.2200 0006060 268.9717  91.0802 15.51379974899195"
      },
      "geometry": {
        "type": "Point",
        "coordinates": [
          -86.29575207576504,
          -72.17677649318813
        ]
      }
    },
    {
      "type": "Feature",
      "properties": {
        "norad_id": 34409,
        "name": "COSMOS 2251 DEB",
        "group": "cosmos-2251-debris",
        "lat": 28.352425246464676,
        "lon": 123.89328504351275,
        "alt_km": 727.85418675641,
        "timestamp": "2025-12-09T14:52:26.556676+00:00",
        "meta_object_name": "COSMOS 2251 DEB",
        "meta_object_id": "1993-036RA",
        "meta_epoch": "2025-12-09T08:09:02.819808",
        "meta_mean_motion": 14.58014853,
        "meta_eccentricity": 0.00796746,
        "meta_inclination": 74.063,
        "meta_ra_of_asc_node": 313.2952,
        "meta_arg_of_pericenter": 28.5334,
        "meta_mean_anomaly": 91.2118,
        "meta_ephemeris_type": 0,
        "meta_classification_type": "U",
        "meta_norad_cat_id": 34409,
        "meta_element_set_no": 999,
        "meta_rev_at_epoch": 89143,
        "meta_bstar": 0.00045476354,
        "meta_mean_motion_dot": 2.153e-05,
        "meta_mean_motion_ddot": 0,
        "tle_line1": "1 34409U 93036RA  25343.33961597  .00002153  00000+0  45476-3 0  9990",
        "tle_line2": "2 34409  74.0630 313.2952 0079674  28.5334  91.2118 14.58014853891431"
      },
      "geometry": {
        "type": "Point",
        "coordinates": [
          123.89328504351275,
          28.352425246464676
        ]
      }
    },
    {
      "type": "Feature",
      "properties": {
        "norad_id": 34410,
        "name": "COSMOS 2251 DEB",
        "group": "cosmos-2251-debris",
        "lat": -44.92213007632126,
        "lon": 105.31044376621485,
        "alt_km": 523.4175978316471,
        "timestamp": "2025-12-09T14:52:26.556686+00:00",
        "meta_object_name": "COSMOS 2251 DEB",
        "meta_object_id": "1993-036RB",
        "meta_epoch": "2025-12-08T19:02:13.915104",
        "meta_mean_motion": 15.18330254,
        "meta_eccentricity": 0.00209567,
        "meta_inclination": 73.739,
        "meta_ra_of_asc_node": 270.1458,
        "meta_arg_of_pericenter": 112.3147,
        "meta_mean_anomaly": 278.6546,
        "meta_ephemeris_type": 0,
        "meta_classification_type": "U",
        "meta_norad_cat_id": 34410,
        "meta_element_set_no": 999,
        "meta_rev_at_epoch": 89714,
        "meta_bstar": 0.0033403576,
        "meta_mean_motion_dot": 0.00069601,
        "meta_mean_motion_ddot": 0,
        "tle_line1": "1 34410U 93036RB  25342.79321661  .00069601  00000+0  33404-2 0  9991",
        "tle_line2": "2 34410  73.7390 270.1458 0020956 112.3147 278.6546 15.18330254897140"
      },
      "geometry": {
        "type": "Point",
        "coordinates": [
          105.31044376621485,
          -44.92213007632126
        ]
      }
    },
    {
      "type": "Feature",
      "properties": {
        "norad_id": 34412,
        "name": "COSMOS 2251 DEB",
        "group": "cosmos-2251-debris",
        "lat": 53.220953401792265,
        "lon": 127.82496430378073,
        "alt_km": 655.9609203426444,
        "timestamp": "2025-12-09T14:52:26.556697+00:00",
        "meta_object_name": "COSMOS 2251 DEB",
        "meta_object_id": "1993-036RD",
        "meta_epoch": "2025-12-08T23:23:24.222624",
        "meta_mean_motion": 14.47068319,
        "meta_eccentricity": 0.0187102,
        "meta_inclination": 73.9489,
        "meta_ra_of_asc_node": 331.6897,
        "meta_arg_of_pericenter": 67.6677,
        "meta_mean_anomaly": 294.4194,
        "meta_ephemeris_type": 0,
        "meta_classification_type": "U",
        "meta_norad_cat_id": 34412,
        "meta_element_set_no": 999,
        "meta_rev_at_epoch": 87596,
        "meta_bstar": 0.0012474,
        "meta_mean_motion_dot": 5.633e-05,
        "meta_mean_motion_ddot": 0,
        "tle_line1": "1 34412U 93036RD  25342.97458591  .00005633  00000+0  12474-2 0  9995",
        "tle_line2": "2 34412  73.9489 331.6897 0187102  67.6677 294.4194 14.47068319875962"
      },
      "geometry": {
        "type": "Point",
        "coordinates": [
          127.82496430378073,
          53.220953401792265
        ]
      }
    },
    {
      "type": "Feature",
      "properties": {
        "norad_id": 34413,
        "name": "COSMOS 2251 DEB",
        "group": "cosmos-2251-debris",
        "lat": 72.66569570805585,
        "lon": 24.00057934718199,
        "alt_km": 808.4970688076746,
        "timestamp": "2025-12-09T14:52:26.556708+00:00",
        "meta_object_name": "COSMOS 2251 DEB",
        "meta_object_id": "1993-036RE",
        "meta_epoch": "2025-12-09T04:55:13.938816",
        "meta_mean_motion": 14.29051962,
        "meta_eccentricity": 0.00908663,
        "meta_inclination": 74.0317,
        "meta_ra_of_asc_node": 271.2975,
        "meta_arg_of_pericenter": 348.4182,
        "meta_mean_anomaly": 134.6327,
        "meta_ephemeris_type": 0,
        "meta_classification_type": "U",
        "meta_norad_cat_id": 34413,
        "meta_element_set_no": 999,
        "meta_rev_at_epoch": 87080,
        "meta_bstar": 0.0021262677,
        "meta_mean_motion_dot": 5.607e-05,
        "meta_mean_motion_ddot": 0,
        "tle_line1": "1 34413U 93036RE  25343.20502244  .00005607  00000+0  21263-2 0  9995",
        "tle_line2": "2 34413  74.0317 271.2975 0090866 348.4182 134.6327 14.29051962870809"
      },
      "geometry": {
        "type": "Point",
        "coordinates": [
          24.00057934718199,
          72.66569570805585
        ]
      }
    }
  ]
}